start=new Date('2021-10-21T00:00:00.000Z').valueOf();
sats=[{"TIME_SYSTEM":"UTC","LAUNCH_DATE":"2020-10-24","RA_OF_ASC_NODE":"314.9050","SITE":"AFETR","REV_AT_EPOCH":"5528","CLASSIFICATION_TYPE":"U","TLE_LINE1":"1 46758U 20074V   21293.44259131 -.00003142  00000-0 -19209-3 0  9995","MEAN_ANOMALY":"281.8160","RCS_SIZE":"LARGE","BSTAR":"-0.00019209000000","OBJECT_NAME":"STARLINK-1928","APOAPSIS":"548.166","EPOCH":"2021-10-20T10:37:19.889184","ELEMENT_SET_NO":"999","ECCENTRICITY":"0.00014090","MEAN_MOTION_DDOT":"0.0000000000000","OBJECT_TYPE":"PAYLOAD","NORAD_CAT_ID":"46758","FILE":"3174686","MEAN_ELEMENT_THEORY":"SGP4","MEAN_MOTION":"15.06407700","OBJECT_ID":"2020-074V","PERIOD":"95.592","CENTER_NAME":"EARTH","TLE_LINE2":"2 46758  53.0544 314.9050 0001409  78.2987 281.8160 15.06407700 55286","REF_FRAME":"TEME","DECAY_DATE":null,"INCLINATION":"53.0544","PERIAPSIS":"546.214","GP_ID":"187724081","EPHEMERIS_TYPE":"0","COUNTRY_CODE":"US","MEAN_MOTION_DOT":"-0.00003142","ARG_OF_PERICENTER":"78.2987","SEMIMAJOR_AXIS":"6925.325"},{"NORAD_CAT_ID":"46759","OBJECT_TYPE":"PAYLOAD","MEAN_ELEMENT_THEORY":"SGP4","FILE":"3174586","ECCENTRICITY":"0.00011070","MEAN_MOTION_DDOT":"0.0000000000000","ELEMENT_SET_NO":"999","EPOCH":"2021-10-20T08:55:12.712224","APOAPSIS":"547.971","OBJECT_NAME":"STARLINK-1833","MEAN_ANOMALY":"262.7524","TLE_LINE1":"1 46759U 20074W   21293.37167491  .00000892  00000-0  78784-4 0  9996","BSTAR":"0.00007878400000","RCS_SIZE":"LARGE","LAUNCH_DATE":"2020-10-24","RA_OF_ASC_NODE":"325.2034","TIME_SYSTEM":"UTC","CLASSIFICATION_TYPE":"U","REV_AT_EPOCH":"5484","SITE":"AFETR","ARG_OF_PERICENTER":"97.3591","SEMIMAJOR_AXIS":"6925.339","EPHEMERIS_TYPE":"0","GP_ID":"187721788","PERIAPSIS":"546.438","MEAN_MOTION_DOT":"0.00000892","COUNTRY_CODE":"US","INCLINATION":"53.0557","DECAY_DATE":null,"REF_FRAME":"TEME","TLE_LINE2":"2 46759  53.0557 325.2034 0001107  97.3591 262.7524 15.06402985 54849","OBJECT_ID":"2020-074W","MEAN_MOTION":"15.06402985","CENTER_NAME":"EARTH","PERIOD":"95.592"},{"FILE":"3174382","MEAN_ELEMENT_THEORY":"SGP4","NORAD_CAT_ID":"46760","OBJECT_TYPE":"PAYLOAD","EPOCH":"2021-10-20T09:11:07.121184","OBJECT_NAME":"STARLINK-1896","APOAPSIS":"547.969","ECCENTRICITY":"0.00010630","MEAN_MOTION_DDOT":"0.0000000000000","ELEMENT_SET_NO":"999","RCS_SIZE":"LARGE","BSTAR":"-0.00008575600000","TLE_LINE1":"1 46760U 20074X   21293.38272131 -.00001558  00000-0 -85756-4 0  9996","MEAN_ANOMALY":"266.8977","SITE":"AFETR","REV_AT_EPOCH":"5511","CLASSIFICATION_TYPE":"U","LAUNCH_DATE":"2020-10-24","RA_OF_ASC_NODE":"325.1743","TIME_SYSTEM":"UTC","SEMIMAJOR_AXIS":"6925.368","ARG_OF_PERICENTER":"93.2134","COUNTRY_CODE":"US","MEAN_MOTION_DOT":"-0.00001558","GP_ID":"187716445","EPHEMERIS_TYPE":"0","PERIAPSIS":"546.496","REF_FRAME":"TEME","TLE_LINE2":"2 46760  53.0535 325.1743 0001063  93.2134 266.8977 15.06393784 55116","INCLINATION":"53.0535","DECAY_DATE":null,"PERIOD":"95.593","CENTER_NAME":"EARTH","MEAN_MOTION":"15.06393784","OBJECT_ID":"2020-074X"},{"EPOCH":"2021-10-20T17:33:48.346848","OBJECT_NAME":"STARLINK-1901","APOAPSIS":"334.916","MEAN_MOTION_DDOT":"0.0000000000000","ECCENTRICITY":"0.00006720","ELEMENT_SET_NO":"999","FILE":"3175135","MEAN_ELEMENT_THEORY":"SGP4","NORAD_CAT_ID":"46762","OBJECT_TYPE":"PAYLOAD","SITE":"AFETR","CLASSIFICATION_TYPE":"U","REV_AT_EPOCH":"5548","RA_OF_ASC_NODE":"300.8863","LAUNCH_DATE":"2020-10-24","TIME_SYSTEM":"UTC","RCS_SIZE":"LARGE","BSTAR":"0.00307950000000","TLE_LINE1":"1 46762U 20074Z   21293.73180957  .00586119  00000-0  30795-2 0  9991","MEAN_ANOMALY":"316.5672","COUNTRY_CODE":"US","MEAN_MOTION_DOT":"0.00586119","EPHEMERIS_TYPE":"0","GP_ID":"187755612","PERIAPSIS":"334.014","SEMIMAJOR_AXIS":"6712.600","ARG_OF_PERICENTER":"43.5401","CENTER_NAME":"EARTH","PERIOD":"91.221","MEAN_MOTION":"15.78579982","OBJECT_ID":"2020-074Z","REF_FRAME":"TEME","TLE_LINE2":"2 46762  53.0532 300.8863 0000672  43.5401 316.5672 15.78579982 55488","INCLINATION":"53.0532","DECAY_DATE":null},{"EPOCH":"2021-10-20T11:03:52.227360","APOAPSIS":"549.747","OBJECT_NAME":"STARLINK-1902","ECCENTRICITY":"0.00012530","MEAN_MOTION_DDOT":"0.0000000000000","ELEMENT_SET_NO":"999","FILE":"3174382","MEAN_ELEMENT_THEORY":"SGP4","NORAD_CAT_ID":"46763","OBJECT_TYPE":"PAYLOAD","SITE":"AFETR","REV_AT_EPOCH":"5512","CLASSIFICATION_TYPE":"U","LAUNCH_DATE":"2020-10-24","RA_OF_ASC_NODE":"324.8146","TIME_SYSTEM":"UTC","RCS_SIZE":"LARGE","BSTAR":"-0.00337010000000","TLE_LINE1":"1 46763U 20074AA  21293.46102115 -.00049404  00000-0 -33701-2 0  9995","MEAN_ANOMALY":"266.8979","COUNTRY_CODE":"US","MEAN_MOTION_DOT":"-0.00049404","EPHEMERIS_TYPE":"0","GP_ID":"187714945","PERIAPSIS":"548.011","SEMIMAJOR_AXIS":"6927.014","ARG_OF_PERICENTER":"93.2153","CENTER_NAME":"EARTH","PERIOD":"95.627","MEAN_MOTION":"15.05856656","OBJECT_ID":"2020-074AA","REF_FRAME":"TEME","TLE_LINE2":"2 46763  53.0560 324.8146 0001253  93.2153 266.8979 15.05856656 55126","INCLINATION":"53.0560","DECAY_DATE":null},{"FILE":"3174382","MEAN_ELEMENT_THEORY":"SGP4","OBJECT_TYPE":"PAYLOAD","NORAD_CAT_ID":"46764","OBJECT_NAME":"STARLINK-1903","APOAPSIS":"547.991","EPOCH":"2021-10-20T10:36:01.992672","ELEMENT_SET_NO":"999","MEAN_MOTION_DDOT":"0.0000000000000","ECCENTRICITY":"0.00011160","RCS_SIZE":"LARGE","BSTAR":"0.00002194500000","TLE_LINE1":"1 46764U 20074AB  21293.44168973  .00000046  00000-0  21945-4 0  9994","MEAN_ANOMALY":"268.9938","SITE":"AFETR","REV_AT_EPOCH":"5512","CLASSIFICATION_TYPE":"U","TIME_SYSTEM":"UTC","RA_OF_ASC_NODE":"324.8995","LAUNCH_DATE":"2020-10-24","SEMIMAJOR_AXIS":"6925.354","ARG_OF_PERICENTER":"91.1179","COUNTRY_CODE":"US","MEAN_MOTION_DOT":"0.00000046","PERIAPSIS":"546.446","EPHEMERIS_TYPE":"0","GP_ID":"187715695","TLE_LINE2":"2 46764  53.0540 324.8995 0001116  91.1179 268.9938 15.06398380 55124","REF_FRAME":"TEME","DECAY_DATE":null,"INCLINATION":"53.0540","CENTER_NAME":"EARTH","PERIOD":"95.592","MEAN_MOTION":"15.06398380","OBJECT_ID":"2020-074AB"},{"OBJECT_TYPE":"PAYLOAD","NORAD_CAT_ID":"46765","FILE":"3174382","MEAN_ELEMENT_THEORY":"SGP4","APOAPSIS":"548.117","OBJECT_NAME":"STARLINK-1906","EPOCH":"2021-10-20T13:31:11.376768","ELEMENT_SET_NO":"999","MEAN_MOTION_DDOT":"0.0000000000000","ECCENTRICITY":"0.00013130","TLE_LINE1":"1 46765U 20074AC  21293.56332612 -.00001668  00000-0 -93117-4 0  9994","MEAN_ANOMALY":"276.5349","RCS_SIZE":"LARGE","BSTAR":"-0.00009311700000","TIME_SYSTEM":"UTC","RA_OF_ASC_NODE":"324.3528","LAUNCH_DATE":"2020-10-24","SITE":"AFETR","CLASSIFICATION_TYPE":"U","REV_AT_EPOCH":"5513","ARG_OF_PERICENTER":"83.5789","SEMIMAJOR_AXIS":"6925.342","PERIAPSIS":"546.298","EPHEMERIS_TYPE":"0","GP_ID":"187715946","COUNTRY_CODE":"US","MEAN_MOTION_DOT":"-0.00001668","TLE_LINE2":"2 46765  53.0573 324.3528 0001313  83.5789 276.5349 15.06402038 55137","REF_FRAME":"TEME","DECAY_DATE":null,"INCLINATION":"53.0573","MEAN_MOTION":"15.06402038","OBJECT_ID":"2020-074AC","CENTER_NAME":"EARTH","PERIOD":"95.592"},{"RA_OF_ASC_NODE":"324.6974","LAUNCH_DATE":"2020-10-24","TIME_SYSTEM":"UTC","SITE":"AFETR","REV_AT_EPOCH":"5513","CLASSIFICATION_TYPE":"U","TLE_LINE1":"1 46766U 20074AD  21293.48961513 -.00001705  00000-0 -95592-4 0  9995","MEAN_ANOMALY":"278.1373","RCS_SIZE":"LARGE","BSTAR":"-0.00009559200000","EPOCH":"2021-10-20T11:45:02.747232","APOAPSIS":"548.009","OBJECT_NAME":"STARLINK-1916","MEAN_MOTION_DDOT":"0.0000000000000","ECCENTRICITY":"0.00011180","ELEMENT_SET_NO":"999","NORAD_CAT_ID":"46766","OBJECT_TYPE":"PAYLOAD","FILE":"3174382","MEAN_ELEMENT_THEORY":"SGP4","MEAN_MOTION":"15.06393090","OBJECT_ID":"2020-074AD","PERIOD":"95.593","CENTER_NAME":"EARTH","REF_FRAME":"TEME","TLE_LINE2":"2 46766  53.0536 324.6974 0001118  81.9743 278.1373 15.06393090 55132","INCLINATION":"53.0536","DECAY_DATE":null,"GP_ID":"187716697","EPHEMERIS_TYPE":"0","PERIAPSIS":"546.460","COUNTRY_CODE":"US","MEAN_MOTION_DOT":"-0.00001705","ARG_OF_PERICENTER":"81.9743","SEMIMAJOR_AXIS":"6925.370"},{"DECAY_DATE":null,"INCLINATION":"53.0540","TLE_LINE2":"2 46767  53.0540 325.1495 0001105  74.5801 285.5310 15.06401705 55115","REF_FRAME":"TEME","OBJECT_ID":"2020-074AE","MEAN_MOTION":"15.06401705","PERIOD":"95.592","CENTER_NAME":"EARTH","ARG_OF_PERICENTER":"74.5801","SEMIMAJOR_AXIS":"6925.343","PERIAPSIS":"546.443","EPHEMERIS_TYPE":"0","GP_ID":"187715445","MEAN_MOTION_DOT":"0.00000113","COUNTRY_CODE":"US","MEAN_ANOMALY":"285.5310","TLE_LINE1":"1 46767U 20074AE  21293.38641143  .00000113  00000-0  26495-4 0  9995","BSTAR":"0.00002649500000","RCS_SIZE":"LARGE","TIME_SYSTEM":"UTC","LAUNCH_DATE":"2020-10-24","RA_OF_ASC_NODE":"325.1495","REV_AT_EPOCH":"5511","CLASSIFICATION_TYPE":"U","SITE":"AFETR","OBJECT_TYPE":"PAYLOAD","NORAD_CAT_ID":"46767","MEAN_ELEMENT_THEORY":"SGP4","FILE":"3174382","ELEMENT_SET_NO":"999","ECCENTRICITY":"0.00011050","MEAN_MOTION_DDOT":"0.0000000000000","OBJECT_NAME":"STARLINK-1917","APOAPSIS":"547.974","EPOCH":"2021-10-20T09:16:25.947552"},{"EPOCH":"2021-10-20T10:57:16.542144","APOAPSIS":"547.982","OBJECT_NAME":"STARLINK-1918","MEAN_MOTION_DDOT":"0.0000000000000","ECCENTRICITY":"0.00010840","ELEMENT_SET_NO":"999","NORAD_CAT_ID":"46768","OBJECT_TYPE":"PAYLOAD","FILE":"3174382","MEAN_ELEMENT_THEORY":"SGP4","RA_OF_ASC_NODE":"324.8318","LAUNCH_DATE":"2020-10-24","TIME_SYSTEM":"UTC","SITE":"AFETR","CLASSIFICATION_TYPE":"U","REV_AT_EPOCH":"5512","TLE_LINE1":"1 46768U 20074AF  21293.45644146 -.00002166  00000-0 -12659-3 0  9998","MEAN_ANOMALY":"272.9658","RCS_SIZE":"LARGE","BSTAR":"-0.00012659000000","EPHEMERIS_TYPE":"0","GP_ID":"187715196","PERIAPSIS":"546.481","COUNTRY_CODE":"US","MEAN_MOTION_DOT":"-0.00002166","ARG_OF_PERICENTER":"87.1455","SEMIMAJOR_AXIS":"6925.366","MEAN_MOTION":"15.06394177","OBJECT_ID":"2020-074AF","CENTER_NAME":"EARTH","PERIOD":"95.593","REF_FRAME":"TEME","TLE_LINE2":"2 46768  53.0559 324.8318 0001084  87.1455 272.9658 15.06394177 55127","INCLINATION":"53.0559","DECAY_DATE":null}];
